H1 CPF  1  DGF 2022 04 14 11  6041 larets     NONE      
H2   304206 5557    27944 2022 04 14 00 00 00 2022 04 21 00 00 00    30 1 1  0 0 0
H5  0.0650
H9
10 0 59688  61200.000000  0      -2971960.456       3871207.905       5090046.156
10 0 59688  61230.000000  0      -2828040.657       3777073.737       5239843.940
10 0 59688  61260.000000  0      -2681669.341       3678466.990       5384278.743
10 0 59688  61290.000000  0      -2533014.575       3575477.458       5523202.695
10 0 59688  61320.000000  0      -2382246.350       3468200.141       5656473.582
10 0 59688  61350.000000  0      -2229536.383       3356735.153       5783954.988
10 0 59688  61380.000000  0      -2075057.921       3241187.625       5905516.436
10 0 59688  61410.000000  0      -1918985.535       3121667.602       6021033.516
10 0 59688  61440.000000  0      -1761494.923       2998289.936       6130388.013
10 0 59688  61470.000000  0      -1602762.707       2871174.164       6233468.026
10 0 59688  61500.000000  0      -1442966.229       2740444.393       6330168.070
10 0 59688  61530.000000  0      -1282283.357       2606229.173       6420389.182
10 0 59688  61560.000000  0      -1120892.286       2468661.369       6504039.016
10 0 59688  61590.000000  0       -958971.342       2327878.033       6581031.940
10 0 59688  61620.000000  0       -796698.784       2184020.264       6651289.120
10 0 59688  61650.000000  0       -634252.603       2037233.060       6714738.608
10 0 59688  61680.000000  0       -471810.326       1887665.172       6771315.406
10 0 59688  61710.000000  0       -309548.817       1735468.945       6820961.534
10 0 59688  61740.000000  0       -147644.086       1580800.166       6863626.084
10 0 59688  61770.000000  0         13728.902       1423817.900       6899265.270
10 0 59688  61800.000000  0        174396.425       1264684.326       6927842.474
10 0 59688  61830.000000  0        334186.182       1103564.569       6949328.278
10 0 59688  61860.000000  0        492927.486        940626.525       6963700.496
10 0 59688  61890.000000  0        650451.443        776040.688       6970944.195
10 0 59688  61920.000000  0        806591.137        609979.973       6971051.714
10 0 59688  61950.000000  0        961181.802        442619.528       6964022.672
10 0 59688  61980.000000  0       1114061.003        274136.552       6949863.970
10 0 59688  62010.000000  0       1265068.807        104710.107       6928589.786
10 0 59688  62040.000000  0       1414047.951        -65479.078       6900221.565
10 0 59688  62070.000000  0       1560844.008       -236248.798       6864788.001
10 0 59688  62100.000000  0       1705305.552       -407415.575       6822325.003
10 0 59688  62130.000000  0       1847284.314       -578794.852       6772875.664
10 0 59688  62160.000000  0       1986635.332       -750201.194       6716490.221
10 0 59688  62190.000000  0       2123217.110       -921448.486       6653226.004
10 0 59688  62220.000000  0       2256891.756      -1092350.142       6583147.389
10 0 59688  62250.000000  0       2387525.137      -1262719.306       6506325.732
10 0 59688  62280.000000  0       2514987.005      -1432369.064       6422839.304
10 0 59688  62310.000000  0       2639151.144      -1601112.649       6332773.213
10 0 59688  62340.000000  0       2759895.489      -1768763.654       6236219.316
10 0 59688  62370.000000  0       2877102.255      -1935136.239       6133276.132
10 0 59688  62400.000000  0       2990658.053      -2100045.338       6024048.742
10 0 59688  62430.000000  0       3100454.004      -2263306.868       5908648.686
10 0 59688  62460.000000  0       3206385.848      -2424737.942       5787193.855
10 0 59688  62490.000000  0       3308354.047      -2584157.069       5659808.371
10 0 59688  62520.000000  0       3406263.884      -2741384.376       5526622.468
10 0 59688  62550.000000  0       3500025.553      -2896241.803       5387772.358
10 0 59688  62580.000000  0       3589554.248      -3048553.318       5243400.092
10 0 59688  62610.000000  0       3674770.240      -3198145.121       5093653.420
10 0 59688  62640.000000  0       3755598.954      -3344845.841       4938685.638
10 0 59688  62670.000000  0       3831971.041      -3488486.742       4778655.437
10 0 59688  62700.000000  0       3903822.436      -3628901.925       4613726.736
10 0 59688  62730.000000  0       3971094.418      -3765928.521       4444068.513
10 0 59688  62760.000000  0       4033733.656      -3899406.890       4269854.633
10 0 59688  62790.000000  0       4091692.255      -4029180.805       4091263.666
10 0 59688  62820.000000  0       4144927.788      -4155097.649       3908478.706
10 0 59688  62850.000000  0       4193403.330      -4277008.589       3721687.179
10 0 59688  62880.000000  0       4237087.483      -4394768.766       3531080.648
10 0 59688  62910.000000  0       4275954.393      -4508237.471       3336854.612
10 0 59688  62940.000000  0       4309983.757      -4617278.312       3139208.301
10 0 59688  62970.000000  0       4339160.832      -4721759.385       2938344.466
10 0 59688  63000.000000  0       4363476.428      -4821553.437       2734469.167
10 0 59688  63030.000000  0       4382926.898      -4916538.023       2527791.550
10 0 59688  63060.000000  0       4397514.121      -5006595.655       2318523.633
10 0 59688  63090.000000  0       4407245.483      -5091613.955       2106880.079
10 0 59688  63120.000000  0       4412133.841      -5171485.789       1893077.969
10 0 59688  63150.000000  0       4412197.488      -5246109.408       1677336.568
10 0 59688  63180.000000  0       4407460.111      -5315388.577       1459877.098
10 0 59688  63210.000000  0       4397950.737      -5379232.690       1240922.496
10 0 59688  63240.000000  0       4383703.678      -5437556.893       1020697.179
10 0 59688  63270.000000  0       4364758.463      -5490282.182        799426.811
10 0 59688  63300.000000  0       4341159.779      -5537335.512        577338.064
10 0 59688  63330.000000  0       4312957.390      -5578649.889        354658.381
10 0 59688  63360.000000  0       4280206.064      -5614164.464        131615.732
10 0 59688  63390.000000  0       4242965.486      -5643824.615        -91561.630
10 0 59688  63420.000000  0       4201300.160      -5667582.021       -314645.410
10 0 59688  63450.000000  0       4155279.313      -5685394.727       -537407.519
10 0 59688  63480.000000  0       4104976.792      -5697227.200       -759620.309
10 0 59688  63510.000000  0       4050470.948      -5703050.380       -981056.822
10 0 59688  63540.000000  0       3991844.523      -5702841.716      -1201491.015
10 0 59688  63570.000000  0       3929184.535      -5696585.209      -1420698.005
10 0 59688  63600.000000  0       3862582.149      -5684271.433      -1638454.298
10 0 59688  63630.000000  0       3792132.555      -5665897.558      -1854538.024
10 0 59688  63660.000000  0       3717934.834      -5641467.361      -2068729.166
10 0 59688  63690.000000  0       3640091.821      -5610991.230      -2280809.789
10 0 59688  63720.000000  0       3558709.964      -5574486.163      -2490564.269
10 0 59688  63750.000000  0       3473899.184      -5531975.749      -2697779.512
10 0 59688  63780.000000  0       3385772.719      -5483490.156      -2902245.171
10 0 59688  63810.000000  0       3294446.981      -5429066.094      -3103753.860
10 0 59688  63840.000000  0       3200041.395      -5368746.791      -3302101.366
10 0 59688  63870.000000  0       3102678.247      -5302581.942      -3497086.851
10 0 59688  63900.000000  0       3002482.524      -5230627.669      -3688513.053
10 0 59688  63930.000000  0       2899581.749      -5152946.455      -3876186.486
10 0 59688  63960.000000  0       2794105.821      -5069607.089      -4059917.628
10 0 59688  63990.000000  0       2686186.849      -4980684.590      -4239521.107
10 0 59688  64020.000000  0       2575958.987      -4886260.129      -4414815.884
10 0 59688  64050.000000  0       2463558.266      -4786420.951      -4585625.426
10 0 59688  64080.000000  0       2349122.424      -4681260.276      -4751777.879
10 0 59688  64110.000000  0       2232790.743      -4570877.206      -4913106.225
10 0 59688  64140.000000  0       2114703.879      -4455376.622      -5069448.445
10 0 59688  64170.000000  0       1995003.691      -4334869.078      -5220647.672
10 0 59688  64200.000000  0       1873833.076      -4209470.684      -5366552.335
10 0 59688  64230.000000  0       1751335.797      -4079302.993      -5507016.301
10 0 59688  64260.000000  0       1627656.315      -3944492.868      -5641899.014
10 0 59688  64290.000000  0       1502939.620      -3805172.362      -5771065.622
10 0 59688  64320.000000  0       1377331.064      -3661478.575      -5894387.100
10 0 59688  64350.000000  0       1250976.193      -3513553.521      -6011740.368
10 0 59688  64380.000000  0       1124020.581      -3361543.979      -6123008.406
10 0 59688  64410.000000  0        996609.662      -3205601.348      -6228080.355
10 0 59688  64440.000000  0        868888.573      -3045881.486      -6326851.622
10 0 59688  64470.000000  0        741001.985      -2882544.558      -6419223.966
10 0 59688  64500.000000  0        613093.947      -2715754.869      -6505105.588
10 0 59688  64530.000000  0        485307.728      -2545680.697      -6584411.214
10 0 59688  64560.000000  0        357785.660      -2372494.126      -6657062.162
10 0 59688  64590.000000  0        230668.985      -2196370.870      -6722986.415
10 0 59688  64620.000000  0        104097.704      -2017490.099      -6782118.683
10 0 59688  64650.000000  0        -21789.573      -1836034.252      -6834400.453
10 0 59688  64680.000000  0       -146855.770      -1652188.861      -6879780.048
10 0 59688  64710.000000  0       -270965.492      -1466142.362      -6918212.663
10 0 59688  64740.000000  0       -393985.164      -1278085.902      -6949660.406
10 0 59688  64770.000000  0       -515783.169      -1088213.153      -6974092.330
99
